SL-4 R/B                
1 39679U 14021B   25343.62420955  .00017782  00000+0  42110-3 0  9997
2 39679  51.6070  55.7340 0102054 134.9646 225.9668 15.36549404642410
ALOS-2                  
1 39766U 14029A   25344.24061191  .00004058  00000+0  55008-3 0  9996
2 39766  97.9228  79.1221 0001488  99.2878 260.8502 14.79467364623641
YAOGAN-29               
1 41038U 15069A   25344.18799752  .00000695  00000+0  92522-4 0  9996
2 41038  98.0219   7.3512 0000369 351.0679   9.0527 14.82878520542610
ASTRO-H (HITOMI)        
1 41337U 16012A   25343.97877197  .00004531  00000+0  27120-3 0  9997
2 41337  30.9983 215.1722 0009518 151.1710 208.9455 15.09325456538662
HXMT (HUIYAN)           
1 42758U 17034A   25343.95812321  .00004865  00000+0  25623-3 0  9992
2 42758  43.0128 155.0636 0031855  25.4358 334.8050 15.16206777468914
CZ-2C R/B               
1 43521U 18054D   25343.68971456  .00113735  00000+0  77806-3 0  9996
2 43521  35.1321 201.5714 0015845 111.7250 248.5171 15.73265424414570
SAOCOM 1A               
1 43641U 18076A   25344.17401186  .00000127  00000+0  22465-4 0  9998
2 43641  97.8845 168.6335 0001534  81.8049 278.3338 14.82151390388104
H-2A R/B                
1 43682U 18084L   25344.08889888  .00025384  00000+0  68901-3 0  9997
2 43682  98.8780 177.6186 0027544 335.6544  24.3393 15.37218679391997
SAOCOM 1B               
1 46265U 20059A   25344.13775529  .00000658  00000+0  89242-4 0  9993
2 46265  97.8839 167.6982 0001288  84.6575 275.4785 14.82154470285483
CSS (TIANHE)            
1 48274U 21035A   25344.15240991  .00032718  00000+0  41039-3 0  9995
2 48274  41.4682  32.4132 0008862   9.3921 350.7081 15.59004040263626
COSMOS 2550             
1 48865U 21056A   25343.33525535  .00000017  00000+0  63535-5 0  9997
2 48865  67.1455 314.2314 0008326 269.7288  90.2912 15.33838976249607
CZ-2C R/B               
1 52794U 22058K   25343.51591492  .00033033  00000+0  59513-3 0  9994
2 52794  50.1909  59.9873 0045697 185.0920 174.9589 15.48276110196138
