CCSDS_OMM_VERS = 2.0
CREATION_DATE  = 
ORIGINATOR     = 

OBJECT_NAME    = SL-4 R/B
OBJECT_ID      = 2014-021B
CENTER_NAME    = EARTH
REF_FRAME      = TEME
TIME_SYSTEM    = UTC
MEAN_ELEMENT_THEORY = SGP/SGP4

EPOCH          = 2025-12-09T14:58:51.705120
MEAN_MOTION    = 15.36549404
ECCENTRICITY   = .0102054
INCLINATION    = 51.6070
RA_OF_ASC_NODE = 55.7340
ARG_OF_PERICENTER = 134.9646
MEAN_ANOMALY   = 225.9668

EPHEMERIS_TYPE = 0
CLASSIFICATION_TYPE = U
NORAD_CAT_ID   = 39679
ELEMENT_SET_NO = 999
REV_AT_EPOCH   = 64241
BSTAR          = .4211E-3
MEAN_MOTION_DOT = .17782E-3
MEAN_MOTION_DDOT = 0

CCSDS_OMM_VERS = 2.0
CREATION_DATE  = 
ORIGINATOR     = 

OBJECT_NAME    = ALOS-2
OBJECT_ID      = 2014-029A
CENTER_NAME    = EARTH
REF_FRAME      = TEME
TIME_SYSTEM    = UTC
MEAN_ELEMENT_THEORY = SGP/SGP4

EPOCH          = 2025-12-10T05:46:28.869024
MEAN_MOTION    = 14.79467364
ECCENTRICITY   = .0001488
INCLINATION    = 97.9228
RA_OF_ASC_NODE = 79.1221
ARG_OF_PERICENTER = 99.2878
MEAN_ANOMALY   = 260.8502

EPHEMERIS_TYPE = 0
CLASSIFICATION_TYPE = U
NORAD_CAT_ID   = 39766
ELEMENT_SET_NO = 999
REV_AT_EPOCH   = 62364
BSTAR          = .55008E-3
MEAN_MOTION_DOT = .4058E-4
MEAN_MOTION_DDOT = 0

CCSDS_OMM_VERS = 2.0
CREATION_DATE  = 
ORIGINATOR     = 

OBJECT_NAME    = YAOGAN-29
OBJECT_ID      = 2015-069A
CENTER_NAME    = EARTH
REF_FRAME      = TEME
TIME_SYSTEM    = UTC
MEAN_ELEMENT_THEORY = SGP/SGP4

EPOCH          = 2025-12-10T04:30:42.985728
MEAN_MOTION    = 14.82878520
ECCENTRICITY   = .0000369
INCLINATION    = 98.0219
RA_OF_ASC_NODE = 7.3512
ARG_OF_PERICENTER = 351.0679
MEAN_ANOMALY   = 9.0527

EPHEMERIS_TYPE = 0
CLASSIFICATION_TYPE = U
NORAD_CAT_ID   = 41038
ELEMENT_SET_NO = 999
REV_AT_EPOCH   = 54261
BSTAR          = .92522E-4
MEAN_MOTION_DOT = .695E-5
MEAN_MOTION_DDOT = 0

CCSDS_OMM_VERS = 2.0
CREATION_DATE  = 
ORIGINATOR     = 

OBJECT_NAME    = ASTRO-H (HITOMI)
OBJECT_ID      = 2016-012A
CENTER_NAME    = EARTH
REF_FRAME      = TEME
TIME_SYSTEM    = UTC
MEAN_ELEMENT_THEORY = SGP/SGP4

EPOCH          = 2025-12-09T23:29:25.898208
MEAN_MOTION    = 15.09325456
ECCENTRICITY   = .0009518
INCLINATION    = 30.9983
RA_OF_ASC_NODE = 215.1722
ARG_OF_PERICENTER = 151.1710
MEAN_ANOMALY   = 208.9455

EPHEMERIS_TYPE = 0
CLASSIFICATION_TYPE = U
NORAD_CAT_ID   = 41337
ELEMENT_SET_NO = 999
REV_AT_EPOCH   = 53866
BSTAR          = .2712E-3
MEAN_MOTION_DOT = .4531E-4
MEAN_MOTION_DDOT = 0

CCSDS_OMM_VERS = 2.0
CREATION_DATE  = 
ORIGINATOR     = 

OBJECT_NAME    = HXMT (HUIYAN)
OBJECT_ID      = 2017-034A
CENTER_NAME    = EARTH
REF_FRAME      = TEME
TIME_SYSTEM    = UTC
MEAN_ELEMENT_THEORY = SGP/SGP4

EPOCH          = 2025-12-09T22:59:41.845344
MEAN_MOTION    = 15.16206777
ECCENTRICITY   = .0031855
INCLINATION    = 43.0128
RA_OF_ASC_NODE = 155.0636
ARG_OF_PERICENTER = 25.4358
MEAN_ANOMALY   = 334.8050

EPHEMERIS_TYPE = 0
CLASSIFICATION_TYPE = U
NORAD_CAT_ID   = 42758
ELEMENT_SET_NO = 999
REV_AT_EPOCH   = 46891
BSTAR          = .25623E-3
MEAN_MOTION_DOT = .4865E-4
MEAN_MOTION_DDOT = 0

CCSDS_OMM_VERS = 2.0
CREATION_DATE  = 
ORIGINATOR     = 

OBJECT_NAME    = CZ-2C R/B
OBJECT_ID      = 2018-054D
CENTER_NAME    = EARTH
REF_FRAME      = TEME
TIME_SYSTEM    = UTC
MEAN_ELEMENT_THEORY = SGP/SGP4

EPOCH          = 2025-12-09T16:33:11.337984
MEAN_MOTION    = 15.73265424
ECCENTRICITY   = .0015845
INCLINATION    = 35.1321
RA_OF_ASC_NODE = 201.5714
ARG_OF_PERICENTER = 111.7250
MEAN_ANOMALY   = 248.5171

EPHEMERIS_TYPE = 0
CLASSIFICATION_TYPE = U
NORAD_CAT_ID   = 43521
ELEMENT_SET_NO = 999
REV_AT_EPOCH   = 41457
BSTAR          = .77806E-3
MEAN_MOTION_DOT = .113735E-2
MEAN_MOTION_DDOT = 0

CCSDS_OMM_VERS = 2.0
CREATION_DATE  = 
ORIGINATOR     = 

OBJECT_NAME    = SAOCOM 1A
OBJECT_ID      = 2018-076A
CENTER_NAME    = EARTH
REF_FRAME      = TEME
TIME_SYSTEM    = UTC
MEAN_ELEMENT_THEORY = SGP/SGP4

EPOCH          = 2025-12-10T04:10:34.624704
MEAN_MOTION    = 14.82151390
ECCENTRICITY   = .0001534
INCLINATION    = 97.8845
RA_OF_ASC_NODE = 168.6335
ARG_OF_PERICENTER = 81.8049
MEAN_ANOMALY   = 278.3338

EPHEMERIS_TYPE = 0
CLASSIFICATION_TYPE = U
NORAD_CAT_ID   = 43641
ELEMENT_SET_NO = 999
REV_AT_EPOCH   = 38810
BSTAR          = .22465E-4
MEAN_MOTION_DOT = .127E-5
MEAN_MOTION_DDOT = 0

CCSDS_OMM_VERS = 2.0
CREATION_DATE  = 
ORIGINATOR     = 

OBJECT_NAME    = H-2A R/B
OBJECT_ID      = 2018-084L
CENTER_NAME    = EARTH
REF_FRAME      = TEME
TIME_SYSTEM    = UTC
MEAN_ELEMENT_THEORY = SGP/SGP4

EPOCH          = 2025-12-10T02:08:00.863232
MEAN_MOTION    = 15.37218679
ECCENTRICITY   = .0027544
INCLINATION    = 98.8780
RA_OF_ASC_NODE = 177.6186
ARG_OF_PERICENTER = 335.6544
MEAN_ANOMALY   = 24.3393

EPHEMERIS_TYPE = 0
CLASSIFICATION_TYPE = U
NORAD_CAT_ID   = 43682
ELEMENT_SET_NO = 999
REV_AT_EPOCH   = 39199
BSTAR          = .68901E-3
MEAN_MOTION_DOT = .25384E-3
MEAN_MOTION_DDOT = 0

CCSDS_OMM_VERS = 2.0
CREATION_DATE  = 
ORIGINATOR     = 

OBJECT_NAME    = SAOCOM 1B
OBJECT_ID      = 2020-059A
CENTER_NAME    = EARTH
REF_FRAME      = TEME
TIME_SYSTEM    = UTC
MEAN_ELEMENT_THEORY = SGP/SGP4

EPOCH          = 2025-12-10T03:18:22.057056
MEAN_MOTION    = 14.82154470
ECCENTRICITY   = .0001288
INCLINATION    = 97.8839
RA_OF_ASC_NODE = 167.6982
ARG_OF_PERICENTER = 84.6575
MEAN_ANOMALY   = 275.4785

EPHEMERIS_TYPE = 0
CLASSIFICATION_TYPE = U
NORAD_CAT_ID   = 46265
ELEMENT_SET_NO = 999
REV_AT_EPOCH   = 28548
BSTAR          = .89242E-4
MEAN_MOTION_DOT = .658E-5
MEAN_MOTION_DDOT = 0

CCSDS_OMM_VERS = 2.0
CREATION_DATE  = 
ORIGINATOR     = 

OBJECT_NAME    = CSS (TIANHE)
OBJECT_ID      = 2021-035A
CENTER_NAME    = EARTH
REF_FRAME      = TEME
TIME_SYSTEM    = UTC
MEAN_ELEMENT_THEORY = SGP/SGP4

EPOCH          = 2025-12-10T03:39:28.216224
MEAN_MOTION    = 15.59004040
ECCENTRICITY   = .0008862
INCLINATION    = 41.4682
RA_OF_ASC_NODE = 32.4132
ARG_OF_PERICENTER = 9.3921
MEAN_ANOMALY   = 350.7081

EPHEMERIS_TYPE = 0
CLASSIFICATION_TYPE = U
NORAD_CAT_ID   = 48274
ELEMENT_SET_NO = 999
REV_AT_EPOCH   = 26362
BSTAR          = .41039E-3
MEAN_MOTION_DOT = .32718E-3
MEAN_MOTION_DDOT = 0

CCSDS_OMM_VERS = 2.0
CREATION_DATE  = 
ORIGINATOR     = 

OBJECT_NAME    = COSMOS 2550
OBJECT_ID      = 2021-056A
CENTER_NAME    = EARTH
REF_FRAME      = TEME
TIME_SYSTEM    = UTC
MEAN_ELEMENT_THEORY = SGP/SGP4

EPOCH          = 2025-12-09T08:02:46.062240
MEAN_MOTION    = 15.33838976
ECCENTRICITY   = .0008326
INCLINATION    = 67.1455
RA_OF_ASC_NODE = 314.2314
ARG_OF_PERICENTER = 269.7288
MEAN_ANOMALY   = 90.2912

EPHEMERIS_TYPE = 0
CLASSIFICATION_TYPE = U
NORAD_CAT_ID   = 48865
ELEMENT_SET_NO = 999
REV_AT_EPOCH   = 24960
BSTAR          = .63535E-5
MEAN_MOTION_DOT = .17E-6
MEAN_MOTION_DDOT = 0

CCSDS_OMM_VERS = 2.0
CREATION_DATE  = 
ORIGINATOR     = 

OBJECT_NAME    = CZ-2C R/B
OBJECT_ID      = 2022-058K
CENTER_NAME    = EARTH
REF_FRAME      = TEME
TIME_SYSTEM    = UTC
MEAN_ELEMENT_THEORY = SGP/SGP4

EPOCH          = 2025-12-09T12:22:55.049088
MEAN_MOTION    = 15.48276110
ECCENTRICITY   = .00456976
INCLINATION    = 50.1909
RA_OF_ASC_NODE = 59.9873
ARG_OF_PERICENTER = 185.0920
MEAN_ANOMALY   = 174.9589

EPHEMERIS_TYPE = 0
CLASSIFICATION_TYPE = U
NORAD_CAT_ID   = 52794
ELEMENT_SET_NO = 999
REV_AT_EPOCH   = 19613
BSTAR          = .59513286E-3
MEAN_MOTION_DOT = .33033E-3
MEAN_MOTION_DDOT = 0

